KUIPER-00047            
1 64507U 25134H   26062.68920807  .00004621  00000+0  67587-3 0  9991
2 64507  51.8981 242.2679 0002614 121.7537 238.3679 14.77237824 39428
KUIPER-00048            
1 64508U 25134J   26062.90905764  .00001793  00000+0  26412-3 0  9991
2 64508  51.8976 241.1403 0000963 105.9857 254.1211 14.79937014 39462
KUIPER-00049            
1 64509U 25134K   26062.75002315 -.00012914  00000+0 -15424-2 0  9994
2 64509  51.8986 255.2107 0001538 114.4417 256.1771 14.83182647  3594
KUIPER-00050            
1 64510U 25134L   26062.68506170  .00000696  00000+0  81684-4 0  9991
2 64510  51.8907 239.2390 0005624 298.1180  61.9221 14.97217340 39474
KUIPER-00051            
1 64511U 25134M   26062.82890940  .00006385  00000+0  79143-3 0  9996
2 64511  51.9007 251.8494 0000766 104.2003 255.9046 14.83719371 39303
KUIPER-00053            
1 64513U 25134P   26062.90097124  .00004311  00000+0  59426-3 0  9999
2 64513  51.9003 248.6932 0000938 141.1607 218.9423 14.79919702 39351
KUIPER-00054            
1 64514U 25134Q   26062.90663188  .00005681  00000+0  77359-3 0  9995
2 64514  51.8972 243.6413 0000307 126.7436 233.3555 14.79930535 39426
KUIPER-00055            
1 64515U 25134R   26062.78924444  .00024780  00000+0  11365-2 0  9992
2 64515  51.8878 207.5635 0000461 330.3174  29.7780 15.20293604 39928
KUIPER-00056            
1 64516U 25134S   26062.88836409  .00006407  00000+0  79850-3 0  9997
2 64516  51.9015 248.9844 0000968  58.9775 301.1284 14.83485355 39353
KUIPER-00057            
1 64517U 25134T   26062.74862024  .00004778  00000+0  59945-3 0  9997
2 64517  51.8981 257.1047 0004034 251.8616 108.1909 14.83707603 39226
KUIPER-00058            
1 64518U 25134U   26062.83091181  .00005655  00000+0  77009-3 0  9992
2 64518  51.8999 251.4431 0000648 115.6857 244.4172 14.79940156 39314
KUIPER-00059            
1 64519U 25134V   26062.70109122  .00004830  00000+0  66255-3 0  9999
2 64519  51.8986 247.0670 0001362 136.2846 223.8224 14.79905121 39365
KUIPER-00060            
1 64520U 25134W   26062.82121238  .00006258  00000+0  77946-3 0  9991
2 64520  51.9013 246.7596 0001598  69.0970 291.0165 14.83548176 39363
KUIPER-00061            
1 64521U 25134X   26062.82799563  .00005140  00000+0  70281-3 0  9998
2 64521  51.8993 254.0094 0001359  94.8688 265.2430 14.79927283 39264
KUIPER-00062            
1 64522U 25134Y   26062.82529169  .00003528  00000+0  49152-3 0  9993
2 64522  51.8942 256.5569 0000672 159.7635 200.3354 14.79937846 39242
KUIPER-00063            
1 64523U 25134Z   26062.75087770  .00022341  00000+0  29841-2 0  9999
2 64523  51.9017 264.3707 0000907 117.2525 242.8530 14.79446024 39123
