[{"OBJECT_NAME":"KUIPER-00047","OBJECT_ID":"2025-134H","EPOCH":"2026-03-03T16:32:27.577248","MEAN_MOTION":14.77237824,"ECCENTRICITY":0.00026143,"INCLINATION":51.8981,"RA_OF_ASC_NODE":242.2679,"ARG_OF_PERICENTER":121.7537,"MEAN_ANOMALY":238.3679,"EPHEMERIS_TYPE":0,"CLASSIFICATION_TYPE":"U","NORAD_CAT_ID":64507,"ELEMENT_SET_NO":999,"REV_AT_EPOCH":3942,"BSTAR":0.00067587161,"MEAN_MOTION_DOT":4.621e-5,"MEAN_MOTION_DDOT":0},{"OBJECT_NAME":"KUIPER-00048","OBJECT_ID":"2025-134J","EPOCH":"2026-03-03T21:49:02.580096","MEAN_MOTION":14.79937014,"ECCENTRICITY":9.636e-5,"INCLINATION":51.8976,"RA_OF_ASC_NODE":241.1403,"ARG_OF_PERICENTER":105.9857,"MEAN_ANOMALY":254.1211,"EPHEMERIS_TYPE":0,"CLASSIFICATION_TYPE":"U","NORAD_CAT_ID":64508,"ELEMENT_SET_NO":999,"REV_AT_EPOCH":3946,"BSTAR":0.00026411714,"MEAN_MOTION_DOT":1.793e-5,"MEAN_MOTION_DDOT":0},{"OBJECT_NAME":"KUIPER-00049","OBJECT_ID":"2025-134K","EPOCH":"2026-03-03T18:00:02.000160","MEAN_MOTION":14.83182647,"ECCENTRICITY":0.00015383,"INCLINATION":51.8986,"RA_OF_ASC_NODE":255.2107,"ARG_OF_PERICENTER":114.4417,"MEAN_ANOMALY":256.1771,"EPHEMERIS_TYPE":0,"CLASSIFICATION_TYPE":"U","NORAD_CAT_ID":64509,"ELEMENT_SET_NO":999,"REV_AT_EPOCH":359,"BSTAR":-0.001542367,"MEAN_MOTION_DOT":-0.00012914,"MEAN_MOTION_DDOT":0},{"OBJECT_NAME":"KUIPER-00050","OBJECT_ID":"2025-134L","EPOCH":"2026-03-03T16:26:29.330880","MEAN_MOTION":14.9721734,"ECCENTRICITY":0.0005624,"INCLINATION":51.8907,"RA_OF_ASC_NODE":239.239,"ARG_OF_PERICENTER":298.118,"MEAN_ANOMALY":61.9221,"EPHEMERIS_TYPE":0,"CLASSIFICATION_TYPE":"U","NORAD_CAT_ID":64510,"ELEMENT_SET_NO":999,"REV_AT_EPOCH":3947,"BSTAR":8.1684111e-5,"MEAN_MOTION_DOT":6.96e-6,"MEAN_MOTION_DDOT":0},{"OBJECT_NAME":"KUIPER-00051","OBJECT_ID":"2025-134M","EPOCH":"2026-03-03T19:53:37.772160","MEAN_MOTION":14.83719371,"ECCENTRICITY":7.667e-5,"INCLINATION":51.9007,"RA_OF_ASC_NODE":251.8494,"ARG_OF_PERICENTER":104.2003,"MEAN_ANOMALY":255.9046,"EPHEMERIS_TYPE":0,"CLASSIFICATION_TYPE":"U","NORAD_CAT_ID":64511,"ELEMENT_SET_NO":999,"REV_AT_EPOCH":3930,"BSTAR":0.00079142987,"MEAN_MOTION_DOT":6.385e-5,"MEAN_MOTION_DDOT":0},{"OBJECT_NAME":"KUIPER-00053","OBJECT_ID":"2025-134P","EPOCH":"2026-03-03T21:37:23.915136","MEAN_MOTION":14.79919702,"ECCENTRICITY":9.388e-5,"INCLINATION":51.9003,"RA_OF_ASC_NODE":248.6932,"ARG_OF_PERICENTER":141.1607,"MEAN_ANOMALY":218.9423,"EPHEMERIS_TYPE":0,"CLASSIFICATION_TYPE":"U","NORAD_CAT_ID":64513,"ELEMENT_SET_NO":999,"REV_AT_EPOCH":3935,"BSTAR":0.00059426041,"MEAN_MOTION_DOT":4.311e-5,"MEAN_MOTION_DDOT":0},{"OBJECT_NAME":"KUIPER-00054","OBJECT_ID":"2025-134Q","EPOCH":"2026-03-03T21:45:32.994432","MEAN_MOTION":14.79930535,"ECCENTRICITY":3.079e-5,"INCLINATION":51.8972,"RA_OF_ASC_NODE":243.6413,"ARG_OF_PERICENTER":126.7436,"MEAN_ANOMALY":233.3555,"EPHEMERIS_TYPE":0,"CLASSIFICATION_TYPE":"U","NORAD_CAT_ID":64514,"ELEMENT_SET_NO":999,"REV_AT_EPOCH":3942,"BSTAR":0.00077359172,"MEAN_MOTION_DOT":5.681e-5,"MEAN_MOTION_DDOT":0},{"OBJECT_NAME":"KUIPER-00055","OBJECT_ID":"2025-134R","EPOCH":"2026-03-03T18:56:30.719616","MEAN_MOTION":15.20293604,"ECCENTRICITY":4.61e-5,"INCLINATION":51.8878,"RA_OF_ASC_NODE":207.5635,"ARG_OF_PERICENTER":330.3174,"MEAN_ANOMALY":29.778,"EPHEMERIS_TYPE":0,"CLASSIFICATION_TYPE":"U","NORAD_CAT_ID":64515,"ELEMENT_SET_NO":999,"REV_AT_EPOCH":3992,"BSTAR":0.0011365258,"MEAN_MOTION_DOT":0.0002478,"MEAN_MOTION_DDOT":0},{"OBJECT_NAME":"KUIPER-00056","OBJECT_ID":"2025-134S","EPOCH":"2026-03-03T21:19:14.657376","MEAN_MOTION":14.83485355,"ECCENTRICITY":9.688e-5,"INCLINATION":51.9015,"RA_OF_ASC_NODE":248.9844,"ARG_OF_PERICENTER":58.9775,"MEAN_ANOMALY":301.1284,"EPHEMERIS_TYPE":0,"CLASSIFICATION_TYPE":"U","NORAD_CAT_ID":64516,"ELEMENT_SET_NO":999,"REV_AT_EPOCH":3935,"BSTAR":0.0007985025,"MEAN_MOTION_DOT":6.407e-5,"MEAN_MOTION_DDOT":0},{"OBJECT_NAME":"KUIPER-00057","OBJECT_ID":"2025-134T","EPOCH":"2026-03-03T17:58:00.788736","MEAN_MOTION":14.83707603,"ECCENTRICITY":0.0004034,"INCLINATION":51.8981,"RA_OF_ASC_NODE":257.1047,"ARG_OF_PERICENTER":251.8616,"MEAN_ANOMALY":108.1909,"EPHEMERIS_TYPE":0,"CLASSIFICATION_TYPE":"U","NORAD_CAT_ID":64517,"ELEMENT_SET_NO":999,"REV_AT_EPOCH":3922,"BSTAR":0.00059944515,"MEAN_MOTION_DOT":4.778e-5,"MEAN_MOTION_DDOT":0},{"OBJECT_NAME":"KUIPER-00058","OBJECT_ID":"2025-134U","EPOCH":"2026-03-03T19:56:30.780384","MEAN_MOTION":14.79940156,"ECCENTRICITY":6.48e-5,"INCLINATION":51.8999,"RA_OF_ASC_NODE":251.4431,"ARG_OF_PERICENTER":115.6857,"MEAN_ANOMALY":244.4172,"EPHEMERIS_TYPE":0,"CLASSIFICATION_TYPE":"U","NORAD_CAT_ID":64518,"ELEMENT_SET_NO":999,"REV_AT_EPOCH":3931,"BSTAR":0.00077008877,"MEAN_MOTION_DOT":5.655e-5,"MEAN_MOTION_DDOT":0},{"OBJECT_NAME":"KUIPER-00059","OBJECT_ID":"2025-134V","EPOCH":"2026-03-03T16:49:34.281408","MEAN_MOTION":14.79905121,"ECCENTRICITY":0.00013627,"INCLINATION":51.8986,"RA_OF_ASC_NODE":247.067,"ARG_OF_PERICENTER":136.2846,"MEAN_ANOMALY":223.8224,"EPHEMERIS_TYPE":0,"CLASSIFICATION_TYPE":"U","NORAD_CAT_ID":64519,"ELEMENT_SET_NO":999,"REV_AT_EPOCH":3936,"BSTAR":0.00066254523,"MEAN_MOTION_DOT":4.83e-5,"MEAN_MOTION_DDOT":0},{"OBJECT_NAME":"KUIPER-00060","OBJECT_ID":"2025-134W","EPOCH":"2026-03-03T19:42:32.749632","MEAN_MOTION":14.83548176,"ECCENTRICITY":0.00015988,"INCLINATION":51.9013,"RA_OF_ASC_NODE":246.7596,"ARG_OF_PERICENTER":69.097,"MEAN_ANOMALY":291.0165,"EPHEMERIS_TYPE":0,"CLASSIFICATION_TYPE":"U","NORAD_CAT_ID":64520,"ELEMENT_SET_NO":999,"REV_AT_EPOCH":3936,"BSTAR":0.00077945741,"MEAN_MOTION_DOT":6.258e-5,"MEAN_MOTION_DDOT":0},{"OBJECT_NAME":"KUIPER-00061","OBJECT_ID":"2025-134X","EPOCH":"2026-03-03T19:52:18.822432","MEAN_MOTION":14.79927283,"ECCENTRICITY":0.00013599,"INCLINATION":51.8993,"RA_OF_ASC_NODE":254.0094,"ARG_OF_PERICENTER":94.8688,"MEAN_ANOMALY":265.243,"EPHEMERIS_TYPE":0,"CLASSIFICATION_TYPE":"U","NORAD_CAT_ID":64521,"ELEMENT_SET_NO":999,"REV_AT_EPOCH":3926,"BSTAR":0.00070280931,"MEAN_MOTION_DOT":5.14e-5,"MEAN_MOTION_DDOT":0},{"OBJECT_NAME":"KUIPER-00062","OBJECT_ID":"2025-134Y","EPOCH":"2026-03-03T19:48:25.202016","MEAN_MOTION":14.79937846,"ECCENTRICITY":6.729e-5,"INCLINATION":51.8942,"RA_OF_ASC_NODE":256.5569,"ARG_OF_PERICENTER":159.7635,"MEAN_ANOMALY":200.3354,"EPHEMERIS_TYPE":0,"CLASSIFICATION_TYPE":"U","NORAD_CAT_ID":64522,"ELEMENT_SET_NO":999,"REV_AT_EPOCH":3924,"BSTAR":0.00049152095,"MEAN_MOTION_DOT":3.528e-5,"MEAN_MOTION_DDOT":0},{"OBJECT_NAME":"KUIPER-00063","OBJECT_ID":"2025-134Z","EPOCH":"2026-03-03T18:01:15.833280","MEAN_MOTION":14.79446024,"ECCENTRICITY":9.077e-5,"INCLINATION":51.9017,"RA_OF_ASC_NODE":264.3707,"ARG_OF_PERICENTER":117.2525,"MEAN_ANOMALY":242.853,"EPHEMERIS_TYPE":0,"CLASSIFICATION_TYPE":"U","NORAD_CAT_ID":64523,"ELEMENT_SET_NO":999,"REV_AT_EPOCH":3912,"BSTAR":0.0029840745,"MEAN_MOTION_DOT":0.00022341,"MEAN_MOTION_DDOT":0}]
